start=new Date('2023-03-21T00:00:00.000Z').valueOf();
sats=[{"DECAY_DATE":null,"COUNTRY_CODE":"US","SEMIMAJOR_AXIS":"6917.872","OBJECT_ID":"2022-001AK","MEAN_ELEMENT_THEORY":"SGP4","EPOCH":"2023-03-20T22:59:37.546080","MEAN_ANOMALY":"263.8290","TLE_LINE2":"2 50836  53.2165   8.6669 0001263  96.2846 263.8290 15.08842837 67760","PERIOD":"95.437","INCLINATION":"53.2165","REF_FRAME":"TEME","RA_OF_ASC_NODE":"8.6669","APOAPSIS":"540.610","ECCENTRICITY":"0.00012630","OBJECT_NAME":"STARLINK-3330","FILE":"3866089","PERIAPSIS":"538.863","CENTER_NAME":"EARTH","TIME_SYSTEM":"UTC","GP_ID":"228524671","REV_AT_EPOCH":"6776","ELEMENT_SET_NO":"999","MEAN_MOTION_DDOT":"0.0000000000000","CLASSIFICATION_TYPE":"U","BSTAR":"0.00016782000000","MEAN_MOTION_DOT":"0.00002384","SITE":"AFETR","RCS_SIZE":"LARGE","NORAD_CAT_ID":"50836","EPHEMERIS_TYPE":"0","MEAN_MOTION":"15.08842837","TLE_LINE1":"1 50836U 22001AK  23079.95807345  .00002384  00000-0  16782-3 0  9993","LAUNCH_DATE":"2022-01-06","ARG_OF_PERICENTER":"96.2846","OBJECT_TYPE":"PAYLOAD"},{"MEAN_MOTION_DOT":"0.00007055","SITE":"AFETR","NORAD_CAT_ID":"50837","RCS_SIZE":"LARGE","EPHEMERIS_TYPE":"0","MEAN_MOTION":"15.08837618","TLE_LINE1":"1 50837U 22001AL  23079.91851490  .00007055  00000-0  46093-3 0  9998","ARG_OF_PERICENTER":"79.6584","LAUNCH_DATE":"2022-01-06","OBJECT_TYPE":"PAYLOAD","CENTER_NAME":"EARTH","TIME_SYSTEM":"UTC","REV_AT_EPOCH":"6784","GP_ID":"228524689","BSTAR":"0.00046093000000","MEAN_MOTION_DDOT":"0.0000000000000","CLASSIFICATION_TYPE":"U","ELEMENT_SET_NO":"999","TLE_LINE2":"2 50837  53.2165 358.8451 0001127  79.6584 280.4535 15.08837618 67840","PERIOD":"95.438","INCLINATION":"53.2165","REF_FRAME":"TEME","APOAPSIS":"540.532","RA_OF_ASC_NODE":"358.8451","ECCENTRICITY":"0.00011270","OBJECT_NAME":"STARLINK-3318","FILE":"3866095","PERIAPSIS":"538.973","DECAY_DATE":null,"COUNTRY_CODE":"US","SEMIMAJOR_AXIS":"6917.888","OBJECT_ID":"2022-001AL","MEAN_ELEMENT_THEORY":"SGP4","MEAN_ANOMALY":"280.4535","EPOCH":"2023-03-20T22:02:39.687360"},{"RCS_SIZE":"LARGE","NORAD_CAT_ID":"50838","SITE":"AFETR","MEAN_MOTION_DOT":"0.00051405","OBJECT_TYPE":"PAYLOAD","ARG_OF_PERICENTER":"166.9955","LAUNCH_DATE":"2022-01-06","EPHEMERIS_TYPE":"0","TLE_LINE1":"1 50838U 22001AM  23079.22595519  .00051405  00000-0  26797-2 0  9996","MEAN_MOTION":"15.15498845","CENTER_NAME":"EARTH","MEAN_MOTION_DDOT":"0.0000000000000","ELEMENT_SET_NO":"999","CLASSIFICATION_TYPE":"U","BSTAR":"0.00267970000000","TIME_SYSTEM":"UTC","REV_AT_EPOCH":"6642","GP_ID":"228518217","INCLINATION":"53.2199","APOAPSIS":"520.439","ECCENTRICITY":"0.00014100","RA_OF_ASC_NODE":"10.1905","REF_FRAME":"TEME","TLE_LINE2":"2 50838  53.2199  10.1905 0001410 166.9955 193.1077 15.15498845 66424","PERIOD":"95.018","FILE":"3865912","PERIAPSIS":"518.494","OBJECT_NAME":"STARLINK-3322","COUNTRY_CODE":"US","DECAY_DATE":null,"MEAN_ELEMENT_THEORY":"SGP4","EPOCH":"2023-03-20T05:25:22.528416","MEAN_ANOMALY":"193.1077","SEMIMAJOR_AXIS":"6897.602","OBJECT_ID":"2022-001AM"},{"DECAY_DATE":null,"COUNTRY_CODE":"US","OBJECT_ID":"2022-001AN","SEMIMAJOR_AXIS":"6917.877","EPOCH":"2023-03-20T12:55:31.050912","MEAN_ANOMALY":"269.3196","MEAN_ELEMENT_THEORY":"SGP4","TLE_LINE2":"2 50839  53.2169  10.5509 0001206  90.7934 269.3196 15.08840995 66438","PERIOD":"95.437","REF_FRAME":"TEME","ECCENTRICITY":"0.00012060","APOAPSIS":"540.577","RA_OF_ASC_NODE":"10.5509","INCLINATION":"53.2169","OBJECT_NAME":"STARLINK-3320","PERIAPSIS":"538.908","FILE":"3865912","CENTER_NAME":"EARTH","REV_AT_EPOCH":"6643","GP_ID":"228516971","TIME_SYSTEM":"UTC","MEAN_MOTION_DDOT":"0.0000000000000","CLASSIFICATION_TYPE":"U","ELEMENT_SET_NO":"999","BSTAR":"0.00017670000000","MEAN_MOTION_DOT":"0.00002526","SITE":"AFETR","NORAD_CAT_ID":"50839","RCS_SIZE":"LARGE","MEAN_MOTION":"15.08840995","TLE_LINE1":"1 50839U 22001AN  23079.53855383  .00002526  00000-0  17670-3 0  9990","EPHEMERIS_TYPE":"0","ARG_OF_PERICENTER":"90.7934","LAUNCH_DATE":"2022-01-06","OBJECT_TYPE":"PAYLOAD"},{"NORAD_CAT_ID":"50840","RCS_SIZE":"LARGE","SITE":"AFETR","MEAN_MOTION_DOT":"-0.00001343","OBJECT_TYPE":"PAYLOAD","ARG_OF_PERICENTER":"91.5651","LAUNCH_DATE":"2022-01-06","EPHEMERIS_TYPE":"0","TLE_LINE1":"1 50840U 22001AP  23079.53487490 -.00001343  00000-0 -66325-4 0  9992","MEAN_MOTION":"15.08833239","CENTER_NAME":"EARTH","MEAN_MOTION_DDOT":"0.0000000000000","BSTAR":"-0.00006632500000","ELEMENT_SET_NO":"999","CLASSIFICATION_TYPE":"U","TIME_SYSTEM":"UTC","GP_ID":"228516721","REV_AT_EPOCH":"6643","INCLINATION":"53.2187","ECCENTRICITY":"0.00010120","APOAPSIS":"540.466","RA_OF_ASC_NODE":"10.5742","REF_FRAME":"TEME","TLE_LINE2":"2 50840  53.2187  10.5742 0001012  91.5651 268.5457 15.08833239 66433","PERIOD":"95.438","FILE":"3865912","PERIAPSIS":"539.066","OBJECT_NAME":"STARLINK-3295","COUNTRY_CODE":"US","DECAY_DATE":null,"MEAN_ELEMENT_THEORY":"SGP4","EPOCH":"2023-03-20T12:50:13.191360","MEAN_ANOMALY":"268.5457","SEMIMAJOR_AXIS":"6917.901","OBJECT_ID":"2022-001AP"},{"REV_AT_EPOCH":"6644","GP_ID":"228517469","TIME_SYSTEM":"UTC","BSTAR":"0.00086586000000","MEAN_MOTION_DDOT":"0.0000000000000","ELEMENT_SET_NO":"999","CLASSIFICATION_TYPE":"U","CENTER_NAME":"EARTH","MEAN_MOTION":"15.08848383","TLE_LINE1":"1 50841U 22001AQ  23079.54591279  .00013522  00000-0  86586-3 0  9995","EPHEMERIS_TYPE":"0","ARG_OF_PERICENTER":"85.7712","LAUNCH_DATE":"2022-01-06","OBJECT_TYPE":"PAYLOAD","MEAN_MOTION_DOT":"0.00013522","SITE":"AFETR","NORAD_CAT_ID":"50841","RCS_SIZE":"LARGE","OBJECT_ID":"2022-001AQ","SEMIMAJOR_AXIS":"6917.855","MEAN_ANOMALY":"274.3434","EPOCH":"2023-03-20T13:06:06.865056","MEAN_ELEMENT_THEORY":"SGP4","DECAY_DATE":null,"COUNTRY_CODE":"US","OBJECT_NAME":"STARLINK-3300","PERIAPSIS":"538.789","FILE":"3865912","TLE_LINE2":"2 50841  53.2167  10.5183 0001346  85.7712 274.3434 15.08848383 66441","PERIOD":"95.437","REF_FRAME":"TEME","RA_OF_ASC_NODE":"10.5183","APOAPSIS":"540.651","ECCENTRICITY":"0.00013460","INCLINATION":"53.2167"},{"ELEMENT_SET_NO":"999","MEAN_MOTION_DDOT":"0.0000000000000","BSTAR":"0.00052408000000","CLASSIFICATION_TYPE":"U","REV_AT_EPOCH":"6643","GP_ID":"228517718","TIME_SYSTEM":"UTC","CENTER_NAME":"EARTH","OBJECT_TYPE":"PAYLOAD","LAUNCH_DATE":"2022-01-06","ARG_OF_PERICENTER":"106.1185","TLE_LINE1":"1 50842U 22001AR  23079.53119192  .00008064  00000-0  52408-3 0  9996","MEAN_MOTION":"15.08847371","EPHEMERIS_TYPE":"0","NORAD_CAT_ID":"50842","RCS_SIZE":"LARGE","SITE":"AFETR","MEAN_MOTION_DOT":"0.00008064","MEAN_ANOMALY":"253.9922","EPOCH":"2023-03-20T12:44:54.981888","MEAN_ELEMENT_THEORY":"SGP4","OBJECT_ID":"2022-001AR","SEMIMAJOR_AXIS":"6917.858","COUNTRY_CODE":"US","DECAY_DATE":null,"PERIAPSIS":"538.997","FILE":"3865912","OBJECT_NAME":"STARLINK-3302","APOAPSIS":"540.449","ECCENTRICITY":"0.00010490","RA_OF_ASC_NODE":"10.5853","REF_FRAME":"TEME","INCLINATION":"53.2175","PERIOD":"95.437","TLE_LINE2":"2 50842  53.2175  10.5853 0001049 106.1185 253.9922 15.08847371 66437"},{"SEMIMAJOR_AXIS":"6917.843","OBJECT_ID":"2022-001AS","MEAN_ELEMENT_THEORY":"SGP4","EPOCH":"2023-03-20T22:49:01.915968","MEAN_ANOMALY":"296.1153","DECAY_DATE":null,"COUNTRY_CODE":"US","OBJECT_NAME":"STARLINK-3325","FILE":"3866091","PERIAPSIS":"538.933","TLE_LINE2":"2 50843  53.2172   8.6999 0001121  63.9955 296.1153 15.08852225 67700","PERIOD":"95.437","INCLINATION":"53.2172","ECCENTRICITY":"0.00011210","APOAPSIS":"540.484","RA_OF_ASC_NODE":"8.6999","REF_FRAME":"TEME","TIME_SYSTEM":"UTC","GP_ID":"228524309","REV_AT_EPOCH":"6770","CLASSIFICATION_TYPE":"U","MEAN_MOTION_DDOT":"0.0000000000000","ELEMENT_SET_NO":"999","BSTAR":"0.00150790000000","CENTER_NAME":"EARTH","EPHEMERIS_TYPE":"0","TLE_LINE1":"1 50843U 22001AS  23079.95071662  .00023800  00000-0  15079-2 0  9999","MEAN_MOTION":"15.08852225","OBJECT_TYPE":"PAYLOAD","LAUNCH_DATE":"2022-01-06","ARG_OF_PERICENTER":"63.9955","SITE":"AFETR","MEAN_MOTION_DOT":"0.00023800","NORAD_CAT_ID":"50843","RCS_SIZE":"LARGE"},{"MEAN_MOTION_DOT":"0.00013669","SITE":"AFETR","RCS_SIZE":"LARGE","NORAD_CAT_ID":"50844","MEAN_MOTION":"15.08862931","TLE_LINE1":"1 50844U 22001AT  23079.18894916  .00013669  00000-0  87472-3 0  9999","EPHEMERIS_TYPE":"0","ARG_OF_PERICENTER":"96.0124","LAUNCH_DATE":"2022-01-06","OBJECT_TYPE":"PAYLOAD","CENTER_NAME":"EARTH","GP_ID":"228517221","REV_AT_EPOCH":"6639","TIME_SYSTEM":"UTC","BSTAR":"0.00087472000000","MEAN_MOTION_DDOT":"0.0000000000000","CLASSIFICATION_TYPE":"U","ELEMENT_SET_NO":"999","TLE_LINE2":"2 50844  53.2188  12.1219 0001138  96.0124 264.0998 15.08862931 66396","PERIOD":"95.436","REF_FRAME":"TEME","APOAPSIS":"540.463","RA_OF_ASC_NODE":"12.1219","ECCENTRICITY":"0.00011380","INCLINATION":"53.2188","OBJECT_NAME":"STARLINK-3326","PERIAPSIS":"538.888","FILE":"3865912","DECAY_DATE":null,"COUNTRY_CODE":"US","OBJECT_ID":"2022-001AT","SEMIMAJOR_AXIS":"6917.810","MEAN_ANOMALY":"264.0998","EPOCH":"2023-03-20T04:32:05.207424","MEAN_ELEMENT_THEORY":"SGP4"},{"TLE_LINE1":"1 50845U 22001AU  23079.96175810  .00015579  00000-0  99428-3 0  9997","MEAN_MOTION":"15.08856944","EPHEMERIS_TYPE":"0","OBJECT_TYPE":"PAYLOAD","ARG_OF_PERICENTER":"84.3661","LAUNCH_DATE":"2022-01-06","SITE":"AFETR","MEAN_MOTION_DOT":"0.00015579","NORAD_CAT_ID":"50845","RCS_SIZE":"LARGE","GP_ID":"228524714","REV_AT_EPOCH":"6774","TIME_SYSTEM":"UTC","CLASSIFICATION_TYPE":"U","MEAN_MOTION_DDOT":"0.0000000000000","ELEMENT_SET_NO":"999","BSTAR":"0.00099428000000","CENTER_NAME":"EARTH","OBJECT_NAME":"STARLINK-3230","PERIAPSIS":"538.740","FILE":"3866091","PERIOD":"95.436","TLE_LINE2":"2 50845  53.2196   8.6537 0001379  84.3661 275.7489 15.08856944 67743","APOAPSIS":"540.648","ECCENTRICITY":"0.00013790","RA_OF_ASC_NODE":"8.6537","REF_FRAME":"TEME","INCLINATION":"53.2196","OBJECT_ID":"2022-001AU","SEMIMAJOR_AXIS":"6917.829","MEAN_ANOMALY":"275.7489","EPOCH":"2023-03-20T23:04:55.899840","MEAN_ELEMENT_THEORY":"SGP4","DECAY_DATE":null,"COUNTRY_CODE":"US"}];
